     3.02           NAVIGATION DATA     M (Mixed)           RINEX VERSION / TYPE
BCEmerge            congo               20130720 034603 GMT PGM / RUN BY / DATE 
Merged GPS/GLO/GAL/BDS/QZS/SBAS navigation file             COMMENT 
based on CONGO and MGEX tracking data                       COMMENT 
DLR: O. Montenbruck;  TUM: P. Steigenberger                 COMMENT 
GAUT -9.3132257462e-10 8.881784197e-16  82800 1749 1749   0 TIME SYSTEM CORR    
GLGP -3.8743019104e-07 0.000000000e+00 345600 1749 1749   0 TIME SYSTEM CORR
GLUT -1.7695128918e-07 0.000000000e+00 345600 1749 1749   0 TIME SYSTEM CORR    
GPGA  6.1409082264e-09 1.332267630e-15 432000 1749 1749   0 TIME SYSTEM CORR    
GPUT  2.7939677238e-09 8.881784197e-15 589824 1749 1749   0 TIME SYSTEM CORR
QZUT -1.1175870895e-08-6.217248938e-15  57600  726  726   0 TIME SYSTEM CORR    
BDUT computed by stub 1.0 08/12/13 at MJD 56492 (interp)    COMMENT
BDUT  4.3000000000e-09 1.620370370e-15 432000  393        7 TIME SYSTEM CORR
    16                                                      LEAP SECONDS        
                                                            END OF HEADER       
S27 2013 07 19 06 37 02-9.592622518539e-08 1.818989403546e-11 4.558470000000e+05
     2.416856984000e+04 1.149999976158e-03-1.249999968422e-08 0.000000000000e+00
     3.456192320000e+04-7.418749928474e-04-3.749999814318e-08 4.096000000000e+03
     1.005960000000e+01-1.944000124931e-03-6.250000296859e-08 1.130000000000e+02
S27 2013 07 19 06 41 20-9.126961231232e-08 1.818989403546e-11 4.561040000000e+05
     2.416886384000e+04 1.142499923706e-03-2.499999936845e-08 0.000000000000e+00
     3.456173208000e+04-7.537499666214e-04-3.749999814318e-08 4.096000000000e+03
     9.560000000000e+00-1.960000038147e-03-6.250000296859e-08 1.140000000000e+02
S27 2013 07 19 06 45 40-8.661299943924e-08 1.546140993014e-11 4.563620000000e+05
     2.416915552000e+04 1.137499928474e-03-2.499999936845e-08 0.000000000000e+00
     3.456153792000e+04-7.637499570847e-04-3.749999814318e-08 4.096000000000e+03
     9.056000000000e+00-1.972000122070e-03-6.250000296859e-08 1.150000000000e+02
S27 2013 07 19 06 49 50-8.242204785347e-08 1.273292582482e-11 4.566150000000e+05
     2.416944592000e+04 1.128749966621e-03-2.499999936845e-08 0.000000000000e+00
     3.456134120000e+04-7.756249904633e-04-3.749999814318e-08 4.096000000000e+03
     8.549200000000e+00-1.980000138283e-03-6.250000296859e-08 1.160000000000e+02
S27 2013 07 19 06 54 08-7.916241884232e-08 8.185452315956e-12 4.568720000000e+05
     2.416973408000e+04 1.129374980927e-03-2.499999936845e-08 0.000000000000e+00
     3.456114144000e+04-7.831249833107e-04-3.749999814318e-08 4.096000000000e+03
     8.040400000000e+00-1.988000035286e-03-6.250000296859e-08 1.170000000000e+02
S27 2013 07 19 06 58 28-7.683411240578e-08 3.637978807092e-12 4.571300000000e+05
     2.417002240000e+04 1.115000009537e-03-2.499999936845e-08 0.000000000000e+00
     3.456093976000e+04-7.956249713898e-04-3.749999814318e-08 4.096000000000e+03
     7.529600000000e+00-2.000000000000e-03-6.250000296859e-08 1.180000000000e+02
S27 2013 07 19 07 02 38-7.590278983116e-08-9.094947017729e-13 4.573830000000e+05
     2.417030704000e+04 1.110625028610e-03-2.499999936845e-08 0.000000000000e+00
     3.456073488000e+04-8.043749928474e-04-3.749999814318e-08 4.096000000000e+03
     7.015600000000e+00-2.008000135422e-03-6.250000296859e-08 1.190000000000e+02
S27 2013 07 19 07 06 56-7.590278983116e-08-5.456968210638e-12 4.576400000000e+05
     2.417059056000e+04 1.105625033379e-03-2.499999936845e-08 0.000000000000e+00
     3.456052776000e+04-8.137499690056e-04-3.749999814318e-08 4.096000000000e+03
     6.499600000000e+00-2.016000032425e-03 0.000000000000e+00 1.200000000000e+02
S27 2013 07 19 07 11 16-7.729977369308e-08-1.000444171950e-11 4.578980000000e+05
     2.417087280000e+04 1.098749995232e-03-2.499999936845e-08 0.000000000000e+00
     3.456031824000e+04-8.224999904633e-04-3.749999814318e-08 4.096000000000e+03
     5.983600000000e+00-2.028000116348e-03 0.000000000000e+00 1.210000000000e+02
S27 2013 07 19 07 15 26-7.962808012962e-08-1.455191522837e-11 4.581510000000e+05
     2.417115328000e+04 1.089375019073e-03-2.499999936845e-08 0.000000000000e+00
     3.456010648000e+04-8.318749666214e-04-3.749999814318e-08 4.096000000000e+03
     5.464400000000e+00-2.036000013351e-03 0.000000000000e+00 1.220000000000e+02
S27 2013 07 19 07 19 44-8.335337042809e-08-1.364242052659e-11 4.584080000000e+05
     2.417143136000e+04 1.085624933243e-03-3.749999814318e-08 0.000000000000e+00
     3.455989232000e+04-8.393749594688e-04-3.749999814318e-08 4.096000000000e+03
     4.943200000000e+00-2.040000200272e-03 0.000000000000e+00 1.230000000000e+02
S27 2013 07 19 07 24 04-8.661299943924e-08-9.094947017729e-12 4.586660000000e+05
     2.417170808000e+04 1.071874976158e-03-3.749999814318e-08 0.000000000000e+00
     3.455967624000e+04-8.499999642372e-04-3.749999814318e-08 4.096000000000e+03
     4.420800000000e+00-2.048000097275e-03 0.000000000000e+00 1.240000000000e+02
S27 2013 07 19 07 28 14-8.894130587578e-08-6.366462912410e-12 4.589190000000e+05
     2.417198128000e+04 1.063125014305e-03-3.749999814318e-08 0.000000000000e+00
     3.455945744000e+04-8.587499856949e-04-3.749999814318e-08 4.096000000000e+03
     3.896400000000e+00-2.048000097275e-03 0.000000000000e+00 1.250000000000e+02
S27 2013 07 19 07 32 32-9.033828973770e-08-6.366462912410e-12 4.591760000000e+05
     2.417225224000e+04 1.055624961853e-03-3.749999814318e-08 0.000000000000e+00
     3.455923640000e+04-8.662499785423e-04-3.749999814318e-08 4.096000000000e+03
     3.372000000000e+00-2.055999994278e-03 0.000000000000e+00 1.260000000000e+02
S27 2013 07 19 07 36 54-9.173527359962e-08-7.275957614183e-12 4.594350000000e+05
     2.417252128000e+04 1.046249985695e-03-3.749999814318e-08 0.000000000000e+00
     3.455901344000e+04-8.743749856949e-04-2.499999936845e-08 4.096000000000e+03
     2.845600000000e+00-2.055999994278e-03 0.000000000000e+00 1.270000000000e+02
S27 2013 07 19 07 41 04-9.359791874886e-08-7.275957614183e-12 4.596880000000e+05
     2.417278792000e+04 1.037500023842e-03-3.749999814318e-08 0.000000000000e+00
     3.455878880000e+04-8.837499618530e-04-2.499999936845e-08 4.096000000000e+03
     2.319200000000e+00-2.055999994278e-03 0.000000000000e+00 1.280000000000e+02
S27 2013 07 19 07 45 22-9.546056389809e-08-4.547473508865e-12 4.599450000000e+05
     2.417305232000e+04 1.027500033379e-03-3.749999814318e-08 0.000000000000e+00
     3.455856176000e+04-8.906250000000e-04-2.499999936845e-08 4.096000000000e+03
     1.792800000000e+00-2.060000181198e-03 0.000000000000e+00 1.290000000000e+02
S27 2013 07 19 07 49 42-9.639188647270e-08-2.728484105319e-12 4.602030000000e+05
     2.417331416000e+04 1.019999980927e-03-3.749999814318e-08 0.000000000000e+00
     3.455833296000e+04-8.968749642372e-04-2.499999936845e-08 4.096000000000e+03
     1.265600000000e+00-2.060000181198e-03 0.000000000000e+00 1.300000000000e+02
S27 2013 07 19 07 53 52-9.685754776001e-08 9.094947017729e-13 4.604560000000e+05
     2.417357408000e+04 1.004374980927e-03-3.749999814318e-08 0.000000000000e+00
     3.455810256000e+04-9.049999713898e-04-2.499999936845e-08 4.096000000000e+03
     7.384000000000e-01-2.064000129700e-03 0.000000000000e+00 1.310000000000e+02
S27 2013 07 19 07 58 10-9.639188647270e-08 4.547473508865e-12 4.607130000000e+05
     2.417383000000e+04 9.912499785423e-04-4.999999873689e-08 0.000000000000e+00
     3.455787008000e+04-9.131249785423e-04-2.499999936845e-08 4.096000000000e+03
     2.100000000000e-01-2.060000181198e-03 0.000000000000e+00 1.320000000000e+02
S27 2013 07 19 08 02 30-9.499490261078e-08 5.456968210638e-12 4.609710000000e+05
     2.417408216000e+04 9.812499880791e-04-4.999999873689e-08 0.000000000000e+00
     3.455763552000e+04-9.193750023842e-04-2.499999936845e-08 4.096000000000e+03
    -3.172000000000e-01-2.055999994278e-03 0.000000000000e+00 1.330000000000e+02
S27 2013 07 19 08 06 40-9.359791874886e-08 6.366462912410e-12 4.612240000000e+05
     2.417433176000e+04 9.699999690056e-04-4.999999873689e-08 0.000000000000e+00
     3.455739936000e+04-9.256249666214e-04-2.499999936845e-08 4.096000000000e+03
    -8.436000000000e-01-2.055999994278e-03 0.000000000000e+00 1.340000000000e+02
S27 2013 07 19 08 10 58-9.173527359962e-08 5.456968210638e-12 4.614810000000e+05
     2.417457848000e+04 9.562499523163e-04-4.999999873689e-08 0.000000000000e+00
     3.455716160000e+04-9.318749904633e-04-2.499999936845e-08 4.096000000000e+03
    -1.370000000000e+00-2.052000045776e-03 0.000000000000e+00 1.350000000000e+02
S27 2013 07 19 08 15 18-9.033828973770e-08 2.728484105319e-12 4.617390000000e+05
     2.417482168000e+04 9.418749809265e-04-4.999999873689e-08 0.000000000000e+00
     3.455692224000e+04-9.387499690056e-04-2.499999936845e-08 4.096000000000e+03
    -1.895200000000e+00-2.048000097275e-03 0.000000000000e+00 1.360000000000e+02
S27 2013 07 19 08 19 28-8.940696716309e-08-1.818989403546e-12 4.619920000000e+05
     2.417506120000e+04 9.362499713898e-04-4.999999873689e-08 0.000000000000e+00
     3.455668112000e+04-9.418749809265e-04-2.499999936845e-08 4.096000000000e+03
    -2.419600000000e+00-2.044000148773e-03 0.000000000000e+00 1.370000000000e+02
S27 2013 07 19 08 23 46-8.987262845039e-08-5.456968210638e-12 4.622490000000e+05
     2.417529928000e+04 9.131249785423e-04-4.999999873689e-08 0.000000000000e+00
     3.455643920000e+04-9.506250023842e-04-2.499999936845e-08 4.096000000000e+03
    -2.942800000000e+00-2.040000200272e-03 0.000000000000e+00 1.380000000000e+02
S27 2013 07 19 08 28 06-9.126961231232e-08-6.366462912410e-12 4.625070000000e+05
     2.417553144000e+04 8.993749618530e-04-4.999999873689e-08 0.000000000000e+00
     3.455619504000e+04-9.556249976158e-04-2.499999936845e-08 4.096000000000e+03
    -3.465200000000e+00-2.032000064850e-03 0.000000000000e+00 1.390000000000e+02
